#dP2023 12 12  0  0  0.00000000      96 __u+U IGS20 FIT  IAC
## 2292 172800.00000000   900.00000000 60290 0.0000000000000
+  119   C06C07C08C09C10C11C12C13C14C16C19C20C21C22C23C24C25
+        C26C27C28C29C30C32C33C34C35C36C37C38C39C40C41C42C43
+        C44C45C46E02E03E04E05E07E08E09E10E11E12E13E15E18E19
+        E21E24E25E26E27E30E31E33E34E36G01G02G03G04G05G06G07
+        G08G09G10G11G12G13G14G15G16G17G18G19G20G21G22G23G24
+        G25G26G27G28G29G30G31G32J02J03J04R01R02R03R04R05R07
+        R08R09R11R12R13R14R15R16R17R18R19R20R21R22R24R25R26
++         8  9  9  8  9  6  7  9  7  8  7  7  6  6  6  6  7
++         7  7  6  6  8  6  7  5  7  8  4  9  7  7  7  6  6
++         6  7  7  6  6  6  5  7  6  6  5  7  7  6  5  5  5
++         8  6  6  6  6  6  6  6  7  6  5  6  5  6  6  6  6
++         5  6  7  4  5  5  5  5  5  5  6  5  5  5  5  8  5
++         6  6  7  6  6  5  6  6  7  7  6  6  7  6  6  7  6
++         5  6  6  7  8  5  5  6  6  5  6  7  5  6  6  7  7
%c M  cc GPS ccc cccc cccc cccc cccc ccccc ccccc ccccc ccccc
%c cc cc ccc ccc cccc cccc cccc cccc ccccc ccccc ccccc ccccc
%f  0.0000000  0.000000000  0.00000000000  0.000000000000000
%f  0.0000000  0.000000000  0.00000000000  0.000000000000000
%i    0    0    0    0      0      0      0      0         0
%i    0    0    0    0      0      0      0      0         0
/* INFORMATION & ANALYSIS CENTER (IAC)      ULTRA-RAPID DATA
/* S/V CLOCKS ARE ALIGNED TO GNSS TIME                      
/* G:C1WC2W R:C1PC2P E:C1XC5X C:C2IC6I J:C1CC2S             
/* PCV:IGS20_2290 OL/AL:FES2004  NONE     YN ORB:CoN CLK:CoN
*  2023 12 12 15 45  0.00000000
PC06  -4080.031104  25917.000431 -32920.917615    204.683166
PC07 -16382.264297  32778.322745  20794.545031   -463.460002
PC08  -6041.946891  40926.449025   8732.607096    185.007250
PC09   6935.094685  30088.377437 -28032.040578   -208.301739
PC10  -7804.246691  32348.577907  25934.304102    -50.804926
PC11   -538.875524  15898.188148  23006.411253    302.801721
PC12 -19767.833128   6699.431066  18567.651890    828.269415
PC13  -2148.192222  42133.229038   3524.349175    394.780196
PC14  -9121.335721  22169.795824 -14233.020910   -262.666087
PC16  -5786.453372  24386.890924 -33626.156558   -222.541700
PC19    162.691212 -19165.577055  20308.994581   -953.500979
PC20  15547.719645 -21927.640770   7546.919365     35.322569
PC21 -22895.059323  11557.233401  10991.516408   -967.859825
PC22 -16193.634123  -5237.714738  22105.771826   -189.396643
PC23  15488.933747  17709.745929  15011.338387   -805.111620
PC24  -7319.237448  21099.222226 -16772.745372    685.647688
PC25   6882.228403  27051.883274   -560.665119    276.495822
PC26 -15886.532565   3751.358173 -22653.821593   -219.201946
PC27  25169.043679  -1164.024114 -12000.828290    241.201010
PC28  25619.811925  10431.830061   3700.921630    182.457023
PC29 -10343.342145 -16917.383817 -19636.873501    213.596434
PC30  11424.856980 -12936.239325 -21927.361132    -10.238818
PC32  22805.217942 -11674.310502 -11058.131406   -542.087943
PC33   -123.704043  19221.955003 -20226.739425   -941.962008
PC34  -9894.211858  13621.478390  22250.934487    323.372036
PC35 -26023.380828  -9454.906808  -3649.411093    482.318758
PC36  -5705.616250 -27276.371823   1338.617909    -95.979089
PC37  16140.173451  -2597.001171  22620.526579   -921.686339
PC38 -10198.768293  37785.232196  15968.181482    123.595480
PC39  -9762.535291  22124.722518 -34476.846147     -6.065333
PC40 -23857.936687  27554.541307  21009.471242    -47.571607
PC41  15700.616775   5877.821381 -22259.697326   -873.280951
PC42 -16569.102638  21612.828708  -6004.611399   -482.284402
PC43   9301.687690  17076.419182  20002.286997     52.018834
PC44 -25240.215139   2033.914376  11753.226719    320.683428
PC45 -15527.251135 -17280.143113 -15449.064095    -54.309822
PC46   6582.685340 -21787.914908  16104.739534   -106.948349
PE02  -7365.395554  28424.202725   3833.698903     86.036351
PE03  -6760.966492  17573.927119 -22846.487099    -79.639132
PE04 -15416.230029 -12660.730444  21870.354118   -278.463945
PE05 -24809.480539  12234.622581 -10543.536874   4699.804467
PE07  28374.557897    604.600061  -8415.045562    -92.661603
PE08  14800.370647  12812.370413 -22210.056658   -191.097947
PE09 -28321.551594   -623.251989   8566.360802   -260.417998
PE10 -21993.183746 -18498.922085   7074.491986   -585.815274
PE11 -22556.990944 -10092.673448  16298.745955   3262.126467
PE12 -18134.080173 -23301.747129  -2188.147089   -815.808922
PE13  22618.887714  10742.916424 -15772.114848    -19.675353
PE15  17861.965414  23444.217669   2738.575360    -74.334362
PE18   1654.617672  15950.523174  19006.045429     86.572355
PE19   9529.149556 -17291.847074  22051.882188  -1029.670500
PE21  17049.403055 -19960.346940  13666.518512   -568.518570
PE24 -17258.716682  -1115.355489 -24042.048579   -481.985890
PE25 -17165.138110  19663.815517 -13969.123320     -2.073656
PE26  13719.717794  -8755.818383 -24712.321271    307.609067
PE27  17326.090169    547.577994  23991.097196   -222.411777
PE30   7139.958031  20771.553754  19840.656243   -736.180681
PE31  -7396.575245 -20468.030987 -20054.104394    -11.594331
PE33  -2195.235591 -21960.486767 -19711.189395      4.063945
PE34   2768.552376  22231.273510  19354.430415    -82.968974
PE36 -14081.589565   8038.928606  24773.122427   -156.713709
PG01 -20313.264012 -11816.936042  12360.342269    163.880728
PG02 -21470.374961 -14542.275238   6761.751784   -516.534434
PG03 -14048.778115  -4271.585832  21984.493550     49.522280
PG04 -25180.684249  -2009.456519   8428.340986    237.605549
PG05   8523.073937  16802.728255 -18862.662045   -153.852497
PG06   1395.186851  19743.331476  17734.103689    480.095224
PG07 -15931.822313   3961.689692 -20489.437748    -10.090980
PG08 -20693.206591  -6675.950670 -15610.489363   -156.607922
PG09 -25439.837152   7340.290760  -2570.064828     24.627332
PG10  10747.789376 -23807.754732  -3493.670394    -65.021243
PG11  10340.113711  22929.401707   8633.870582   -497.926860
PG12  13783.669487   5947.709278  21632.194110   -456.690287
PG13  11148.623462  13381.156909 -20316.774534    604.903752
PG14 -13518.145296  21681.273514  -6886.919971    268.881782
PG15  21021.551851   5197.527410 -16005.574012    106.228613
PG16  -2440.960491 -21259.614346 -15750.555614   -405.481479
PG17 -17603.811201  12993.896257  15587.708898    722.101611
PG18  14459.726150  -5540.366352 -21587.446583   -504.357669
PG19  -8653.431724  14571.522706  20165.977708    411.499814
PG20   1862.205018  25240.053374  -8300.647286    397.010154
PG21 -20828.602980 -17091.843062   3188.470560    141.744137
PG22 -10276.116910  24653.092823   1177.423436     67.334036
PG23  15439.257910 -15544.610220 -14863.772315    114.824621
PG24  21444.701069  14881.104846   5585.617366   -391.808192
PG25  16641.675895  -7617.104682  18820.981982    481.195538
PG26   1738.006826 -25509.309333  -6589.282491    209.802967
PG27  -7670.860682 -13795.881272 -21673.611439    -82.063607
PG28    532.874085 -18754.301008  18774.779886    -68.287128
PG29  26191.578233  -4322.056106  -1973.253215   -609.816339
PG30  -8010.383976  14234.517905 -20783.542575   -458.245309
PG31  -6434.212432 -22038.822855  12782.915848   -226.534346
PG32  13322.548868 -15090.625619  17404.813425   -595.588397
PJ02 -25764.694103  31531.431217  -6166.985349     -0.528994
PJ03 -25686.925321  23248.454547  29225.527638    -11.683732
PJ04 -32983.800574  26225.552393   2848.744236     74.054874
PR01  16865.353732 -16930.817301   8926.849614     71.957842
PR02   2443.616640 -13514.879946  21519.032362    -22.339058
PR03 -13754.980418  -2963.643143  21335.705819     90.780306
PR04 -21944.920241   8873.639974   9558.851930    215.091085
PR05 -18508.407347  15934.491376  -7409.048528    123.680532
PR07  14305.168639   2386.484641 -20931.100458     71.177745
PR08  21899.051572  -9159.536271  -9228.192891    -73.654572
PR09   3494.989585  25097.111913   2560.977634    158.327878
PR11  10861.279456  -1430.311638  23042.570621   -220.665310
PR12   5698.287825 -20161.984322  14556.605240     34.383542
PR13  -2054.841046 -25420.918110   -275.712603    -42.242211
PR14  -9724.740310 -15592.702865 -17691.918233     25.743279
PR15 -10845.546866   2933.642412 -22886.364916     84.011427
PR16  -5598.629490  19978.531075 -14813.009623     21.469696
PR17 -21834.203274 -12761.292030  -3147.131993     42.889050
PR18 -21470.667839  -4615.103771  13040.792246    116.515662
PR19 -11687.597945   4764.610004  22172.797573   -258.047188
PR20   8620.674956  14618.237096  19043.208920   -105.042336
PR21  21954.292762  12753.949628   2607.706470    -60.445717
PR22  21025.138133   4391.483110 -13718.715751     97.929408
PR24  -9600.882059 -14709.695770 -18464.498132    -35.666991
PR25  21763.259919  -8855.878342  -9932.391667 999999.999999
PR26  21287.907499  13728.100692   3112.619103      0.356550
EOF
